[{"OBJECT_NAME":"SITRO-AIS-59","OBJECT_ID":"2025-313K","EPOCH":"2026-03-09T21:18:35.055936","MEAN_MOTION":15.21259923,"ECCENTRICITY":0.00156259,"INCLINATION":97.4001,"RA_OF_ASC_NODE":145.102,"ARG_OF_PERICENTER":358.3568,"MEAN_ANOMALY":1.7614,"EPHEMERIS_TYPE":0,"CLASSIFICATION_TYPE":"U","NORAD_CAT_ID":67257,"ELEMENT_SET_NO":999,"REV_AT_EPOCH":1084,"BSTAR":0.00052056429,"MEAN_MOTION_DOT":0.00011608,"MEAN_MOTION_DDOT":0},{"OBJECT_NAME":"KOWSAR 1.5","OBJECT_ID":"2025-313S","EPOCH":"2026-03-09T21:18:16.087680","MEAN_MOTION":15.21036379,"ECCENTRICITY":0.00150628,"INCLINATION":97.409,"RA_OF_ASC_NODE":145.1794,"ARG_OF_PERICENTER":3.7915,"MEAN_ANOMALY":356.3432,"EPHEMERIS_TYPE":0,"CLASSIFICATION_TYPE":"U","NORAD_CAT_ID":67264,"ELEMENT_SET_NO":999,"REV_AT_EPOCH":1084,"BSTAR":0.00042645892,"MEAN_MOTION_DOT":9.43e-5,"MEAN_MOTION_DDOT":0}]
